[{"OBJECT_NAME":"MARAFON-D GVM","OBJECT_ID":"2024-039V","EPOCH":"2026-03-09T22:15:16.896096","MEAN_MOTION":14.45961623,"ECCENTRICITY":0.00149761,"INCLINATION":88.9816,"RA_OF_ASC_NODE":295.8376,"ARG_OF_PERICENTER":319.0552,"MEAN_ANOMALY":40.9527,"EPHEMERIS_TYPE":0,"CLASSIFICATION_TYPE":"U","NORAD_CAT_ID":59072,"ELEMENT_SET_NO":999,"REV_AT_EPOCH":10684,"BSTAR":8.0103078e-5,"MEAN_MOTION_DOT":3.0e-6,"MEAN_MOTION_DDOT":0},{"OBJECT_NAME":"FENGYUN 1C DEB","OBJECT_ID":"1999-025ABG","EPOCH":"2026-03-09T17:16:19.634016","MEAN_MOTION":14.42941111,"ECCENTRICITY":0.00140423,"INCLINATION":98.9113,"RA_OF_ASC_NODE":136.9935,"ARG_OF_PERICENTER":350.4225,"MEAN_ANOMALY":9.6694,"EPHEMERIS_TYPE":0,"CLASSIFICATION_TYPE":"U","NORAD_CAT_ID":30345,"ELEMENT_SET_NO":999,"REV_AT_EPOCH":99027,"BSTAR":0.0018523438,"MEAN_MOTION_DOT":6.159e-5,"MEAN_MOTION_DDOT":0}]
